[{"OBJECT_NAME":"STARLINK-31837","OBJECT_ID":"2024-183F","EPOCH":"2026-03-09T12:00:25.542432","MEAN_MOTION":15.30184239,"ECCENTRICITY":0.00012076,"INCLINATION":53.1605,"RA_OF_ASC_NODE":143.3068,"ARG_OF_PERICENTER":89.8625,"MEAN_ANOMALY":270.2514,"EPHEMERIS_TYPE":0,"CLASSIFICATION_TYPE":"U","NORAD_CAT_ID":61514,"ELEMENT_SET_NO":999,"REV_AT_EPOCH":7962,"BSTAR":1.184916e-5,"MEAN_MOTION_DOT":-8.0e-8,"MEAN_MOTION_DDOT":0},{"OBJECT_NAME":"OBJECT A","OBJECT_ID":"2025-234A","EPOCH":"2026-03-09T23:03:34.210368","MEAN_MOTION":15.32505956,"ECCENTRICITY":0.00130678,"INCLINATION":97.4388,"RA_OF_ASC_NODE":139.352,"ARG_OF_PERICENTER":148.634,"MEAN_ANOMALY":211.5684,"EPHEMERIS_TYPE":0,"CLASSIFICATION_TYPE":"U","NORAD_CAT_ID":66053,"ELEMENT_SET_NO":999,"REV_AT_EPOCH":2164,"BSTAR":0.0014840662,"MEAN_MOTION_DOT":0.00046856,"MEAN_MOTION_DDOT":0}]
